ONEWEB-0395             
1 50475U 21132G   23059.51663270 -.00000839  00000+0 -24020-2 0  9990
2 50475  87.8803 260.4275 0001813  97.2496 262.8839 13.11418579 57823
ONEWEB-0395             
1 50475U 21132G   23059.59292901 -.00000241  00000+0 -71638-3 0  9992
2 50475  87.8805 260.4121 0001829  96.6344 263.4992 13.11416485 59101
ONEWEB-0395             
1 50475U 21132G   23059.82181945 -.00000315  00000+0 -92450-3 0  9990
2 50475  87.8806 260.3664 0001828  96.5235 263.6101 13.11416100 57869
ONEWEB-0395             
1 50475U 21132G   23060.81367704 -.00000465  00000+0 -13479-2 0  9999
2 50475  87.8805 260.1684 0001830  96.3980 263.7356 13.11415640 57991
ONEWEB-0395             
1 50475U 21132G   23060.81367704 -.00000465  00000+0 -13479-2 0  9999
2 50475  87.8805 260.1684 0001830  96.3980 263.7356 13.11415640 59263
ONEWEB-0395             
1 50475U 21132G   23061.80553553 -.00000529  00000+0 -15272-2 0  9992
2 50475  87.8805 259.9705 0001813  96.0610 264.0725 13.11415238 58122
ONEWEB-0395             
1 50475U 21132G   23062.11072271 -.00000488  00000+0 -14126-2 0  9991
2 50475  87.8805 259.9095 0001808  96.0824 264.0510 13.11415274 59432
ONEWEB-0395             
1 50475U 21132G   23062.49220745 -.00000439  00000+0 -12754-2 0  9994
2 50475  87.8805 259.8335 0001805  95.9106 264.2227 13.11414534 58216
ONEWEB-0395             
1 50475U 21132G   23062.79739492 -.00000401  00000+0 -11666-2 0  9991
2 50475  87.8805 259.7725 0001812  95.9305 264.2029 13.11414627 58254
